name,street,city,state,postalCode,country,description,startDate,endDate,category,organizerInfo,type,status
Smith Ltd,611 Madeline Road Apt. 261,Bridgesview,NY,24960,Guam,Reality set experience within.,2024-01-02,2024-11-03,popular,"Johnson, Carter and Walker",early,Tickets on sale
"Oconnor, Carlson and Williams",3982 Long Plains,Petersonburgh,FM,2743,Cayman Islands,With point cultural major.,2024-01-03,2024-01-11,quite,Jones Ltd,drive,Sold out
"Cole, Jones and Luna",704 Wesley Crescent Apt. 537,Garyfort,NJ,64885,New Caledonia,His laugh Congress letter consider cover.,2024-01-02,2024-05-16,answer,"Robles, Park and Miller",paper,Sold out
Sanchez-Simmons,5896 Christian Rue Apt. 557,Kellyside,GA,94560,Iran,Detail interesting popular bed involve national.,2024-01-02,2024-11-26,food,"Mitchell, Martinez and Medina",cold,Tickets on sale
"Grant, Ali and Martinez",5484 Carr Prairie Apt. 356,Timothytown,OK,37280,Comoros,General its thought someone.,2024-01-02,2024-01-18,surface,Pham Ltd,figure,Limited tickets available
"Jackson, Phillips and Gutierrez",437 Tran Unions,Richardsland,NH,29779,Kiribati,Consumer health little.,2024-01-02,2024-01-22,number,"Abbott, Sanders and Armstrong",around,Sold out
"Miller, Gordon and Alvarez",8576 Philip Isle Apt. 411,East Robert,MS,72316,Bermuda,Along first owner bank president energy discover human.,2024-01-02,2024-09-12,career,Valdez-Rivers,top,Sold out
Murphy Ltd,500 Smith Vista,Brianborough,UT,89537,Latvia,But actually parent property rich.,2024-01-02,2024-07-08,detail,Jones Inc,lead,Tickets on sale
"Palmer, Brady and Edwards",840 Michael Curve,South Amanda,SC,25864,Kuwait,Every class however finally.,2024-01-01,2024-08-31,religious,Patterson-Crane,pretty,Registration open
"Romero, Smith and Lewis",387 Jonathan Junction,South Lindseyland,AS,15645,Fiji,Hard something out class.,2024-01-03,2024-05-15,contain,Allen LLC,appear,Limited tickets available
"Winters, Cooper and Douglas",962 Gregory Knolls,Gonzaleztown,ID,20920,Reunion,Condition foot peace not.,2024-01-01,2024-07-24,seek,Arnold-Holland,expert,Registration open
Wright Group,5424 Jill Extension Apt. 334,Heathershire,IA,4140,Bahrain,Like per cup accept mention space fine.,2024-01-03,2024-09-23,pattern,Dalton-Murray,blood,Registration open
Reeves Group,245 Eduardo Crossing Apt. 706,New Anna,NJ,96246,Macao,Beat citizen continue hour him.,2024-01-02,2024-10-05,free,"Walter, Martin and Marshall",eight,Limited tickets available
Macdonald Ltd,91299 Padilla Divide,Armstrongbury,NY,83134,Cameroon,Such citizen act include.,2024-01-01,2024-09-03,level,"Holland, Stanley and Holder",police,Tickets on sale
Pruitt and Sons,58208 Moran Mount Apt. 354,Lake Nicholas,MI,22765,French Guiana,Alone need system although even debate audience.,2024-01-01,2024-02-10,usually,Schroeder Inc,process,Tickets on sale
Conrad LLC,267 Austin Squares Suite 331,Markton,GA,43120,Israel,Manage best with next chair.,2024-01-03,2024-11-02,education,"Fuller, Wolf and Williams",conference,Tickets on sale
Adams Group,51582 Michelle Drive Suite 884,Port Bryanside,NH,75333,Uganda,Pretty bar play year part wide believe.,2024-01-02,2024-08-23,our,Hughes-Bauer,score,Tickets on sale
"Diaz, Torres and Wilson",337 Stacy Mall Suite 456,New Jenniferfort,MA,96104,Canada,Civil reduce start road glass treat develop.,2024-01-01,2024-05-23,both,Peters Group,garden,Limited tickets available
Gonzalez-Le,690 Jon Light Suite 400,Allenstad,NV,82899,Kiribati,Local cup senior.,2024-01-01,2024-07-25,back,"Baker, Martin and Sutton",of,Registration open
Kane Ltd,530 Megan Trace Apt. 233,Millermouth,WV,95497,Saint Barthelemy,Meet service strong risk try soon.,2024-01-01,2024-06-30,culture,Moran Ltd,add,Tickets on sale
Mitchell PLC,49069 Johnson Drive,North Dawn,NY,94783,Cayman Islands,Dinner international expect moment among just.,2024-01-03,2024-06-02,various,Ortiz and Sons,after,Limited tickets available
Carr Ltd,040 Nicholas Fall Suite 876,Mannville,MI,43807,Macao,Seek key process same blood of.,2024-01-03,2024-04-12,hold,Ibarra Inc,remember,Tickets on sale
Turner-Martin,12624 Martin Ridge,South Kristin,VA,71460,South Georgia and the South Sandwich Islands,Wall rest turn visit anything pattern meet break.,2024-01-01,2024-01-12,soldier,"Johnson, Bailey and Schroeder",poor,Sold out
Faulkner Ltd,62593 Stephanie Pike,West Aaron,TX,8402,Lesotho,West interesting lawyer it with business machine rule.,2024-01-01,2024-02-08,week,Woodard LLC,resource,Limited tickets available
Lewis-Robinson,182 Brittany Rapids Apt. 288,East Lori,NY,57953,Cuba,Man eight worry natural herself.,2024-01-01,2024-07-05,former,Smith-Miller,especially,Registration open
Nichols-Hill,2695 Johnson Vista Suite 247,Jonesbury,VA,15463,American Samoa,Peace attack respond bring detail almost.,2024-01-01,2024-08-15,would,"Fox, Horton and Friedman",training,Limited tickets available
Allen-Knight,66547 Butler Gardens,North Garrettshire,VA,37999,Chile,Rich live follow center girl.,2024-01-02,2024-11-26,sell,"Gomez, Herrera and Martin",specific,Sold out
Collins-Adams,0528 Julie Springs,Parsonsport,ND,36191,Japan,Compare song yes receive.,2024-01-01,2024-11-07,message,"Mendez, Thompson and Thompson",teach,Sold out
Chavez Group,5081 Cheryl Burg,North Susanfort,IL,75748,Niger,Character detail building deep teach many must.,2024-01-03,2024-03-04,accept,"Romero, Klein and Jackson",Republican,Sold out
Moore-Hansen,3180 Burton River,Carterview,FL,38398,Guam,Need successful dark.,2024-01-01,2024-05-29,anyone,Anderson Group,together,Registration open
"Reid, Johnson and Delgado",9303 Ellis Estate Apt. 645,Williamsport,NJ,93819,Bermuda,Agency score teach town receive environmental data.,2024-01-02,2024-02-20,name,"Smith, Hall and Brown",collection,Registration open
Dominguez PLC,12851 William Hills,New Tammyfort,AK,50835,Nauru,Daughter sea ago time.,2024-01-01,2024-01-07,official,Serrano-Gilbert,nor,Tickets on sale
White-Johnson,886 Wallace Bypass,West Lisastad,HI,23342,Gabon,Development child available.,2024-01-02,2024-02-19,do,Warner-Lawrence,government,Tickets on sale
Bender-King,28176 Ashley Spur,South Amanda,UT,6918,Cuba,Road at security direction sign head bar.,2024-01-01,2024-03-08,over,Mathews and Sons,though,Registration open
Williams-Valencia,891 Parker Inlet Suite 134,West Kylechester,PR,67335,Bahamas,Memory avoid argue environment something move experience.,2024-01-02,2024-12-07,western,"Rivas, Lawson and Clark",technology,Sold out
Obrien and Sons,8979 Morales Isle,Mckeeport,NY,26160,Barbados,When lawyer prevent often authority central.,2024-01-02,2024-07-27,what,"Webb, Walker and Phillips",dark,Tickets on sale
"Bates, Brown and Stone",166 Thomas Forks Apt. 342,Cooperbury,HI,32975,Russian Federation,Return around prevent may century early.,2024-01-02,2024-12-16,development,"Perez, Castaneda and Mckenzie",control,Tickets on sale
"Mendoza, Schmitt and Rodriguez",04770 Kemp Path Suite 113,West Brentberg,ME,34290,Bangladesh,Rule never ever or mention student any.,2024-01-02,2024-10-28,peace,"Valentine, Neal and Taylor",deep,Sold out
Swanson LLC,5243 Holland Point,Annborough,MI,64273,Cote d'Ivoire,Daughter million tree song.,2024-01-02,2024-03-23,husband,"Dominguez, Kirk and Huber",could,Limited tickets available
"Hart, Vasquez and Ray",24527 Anthony Pike,New David,MP,37542,Tanzania,Live week explain take she customer.,2024-01-01,2024-01-07,drive,"Garcia, Guerra and Duncan",young,Tickets on sale
Chen-Nelson,630 King Creek Suite 270,Dawnton,PA,25464,Paraguay,Activity executive drive Mrs everybody final decision possible.,2024-01-01,2024-03-09,meet,Miller-Stevens,special,Tickets on sale
Mitchell-West,9204 West Parkway,West Amy,WA,56255,Haiti,Only later save mission situation method future.,2024-01-01,2024-11-24,up,"Klein, Wilson and Sharp",six,Limited tickets available
"Long, Hawkins and Wade",219 Gray Drive,Meyerberg,PA,89364,Germany,Want though before build message ago from yourself.,2024-01-03,2024-11-28,claim,Medina LLC,election,Tickets on sale
"Carter, Paul and Knight",294 Cook Extension Apt. 089,Feliciafurt,WV,73023,Kiribati,Newspaper century poor senior hour half environment picture.,2024-01-03,2024-01-06,fight,Stuart-Taylor,true,Tickets on sale
"Trujillo, Jones and Wilson",7502 Price Road,Port Marcus,CA,36508,Finland,History as effort whose establish rule.,2024-01-03,2024-04-01,assume,"Grimes, Robinson and Lewis",enjoy,Sold out
Goodman and Sons,2596 Nelson Cliffs Suite 103,Floresstad,AS,15706,Colombia,Short beat myself friend door spring write office.,2024-01-02,2024-06-24,spend,"Elliott, Wilson and Chavez",room,Sold out
Cannon-Tucker,83973 Cummings Fort,East Rebecca,PW,83024,Japan,Stop offer item specific weight seat trouble.,2024-01-02,2024-09-01,fear,Johnson-Drake,phone,Tickets on sale
Clark Group,82815 Hill Squares Suite 811,Washingtonberg,VA,31992,Montenegro,Degree each dinner mind impact resource.,2024-01-01,2024-08-10,out,"Morales, Gray and Adams",radio,Sold out
Crosby-Taylor,30279 Joanna Rapids,Port Debrashire,SC,43622,Guyana,Executive fact determine must source only.,2024-01-03,2024-12-29,whom,Chavez-Garcia,ability,Sold out
Williams LLC,3121 Martinez Circles Apt. 796,South Christopher,ID,14834,San Marino,Available such station technology become agent kind.,2024-01-01,2024-11-19,eye,Phillips-Pham,expect,Registration open
Wallace-Serrano,5605 Harris Fields,Marthahaven,PA,28780,Aruba,Brother support security month economic.,2024-01-01,2024-11-29,sign,Little Group,out,Limited tickets available
"Watkins, Fritz and Calhoun",44150 Miller Manors Apt. 346,East Russellton,VT,40038,Northern Mariana Islands,Hour foreign beat since economy thought.,2024-01-03,2024-04-02,TV,"Morris, Gates and Winters",mother,Limited tickets available
Humphrey and Sons,285 Kelsey Orchard,Jacksonville,MN,78272,Togo,Key last before player although.,2024-01-01,2024-06-12,program,Robertson LLC,author,Limited tickets available
"Daniel, Velazquez and Cook",369 Huff Springs,New Thomas,ND,95391,Nepal,Past apply worker.,2024-01-02,2024-01-23,ball,Allen-Hodges,avoid,Sold out
"Mcdaniel, Walker and Walker",8389 Taylor Greens Suite 638,North Davidland,NE,87071,Azerbaijan,Yeah make mother by throughout fly oil investment.,2024-01-01,2024-07-30,save,Rhodes LLC,see,Limited tickets available
Friedman and Sons,4801 Micheal Center Apt. 499,South Ericside,HI,63183,British Virgin Islands,Degree TV draw report reduce need.,2024-01-02,2024-12-10,population,"Hughes, Henderson and Maddox",various,Limited tickets available
"Scott, Foster and Simpson",3263 Ann Crescent,Andreaton,TN,83013,Heard Island and McDonald Islands,Unit son majority.,2024-01-01,2024-10-22,save,"Richardson, Malone and Wang",bit,Registration open
Perez-Villarreal,3483 Wilson Street Apt. 252,North Linda,LA,90149,Namibia,Rate store because big another effort.,2024-01-01,2024-10-14,in,Phillips Inc,well,Limited tickets available
Pugh-Conway,3883 Kara Trail,South Brianna,OH,89696,Mozambique,Himself particularly list professional.,2024-01-01,2024-10-16,total,"Jackson, Levy and Church",five,Sold out
"Carlson, Kelly and Deleon",6794 Lara Flat,Dennistown,IA,71613,Ireland,Much art ago Democrat fight.,2024-01-03,2024-07-23,each,"Jones, Lamb and Bailey",argue,Tickets on sale
"Adkins, Ball and Edwards",4352 Mcintosh Dam Suite 997,West Hayleymouth,AL,73463,Latvia,Several left tend right better win have.,2024-01-02,2024-09-14,reflect,Thompson-Scott,outside,Registration open
Baker-Ortega,047 Robert Estate Apt. 978,East Wandaton,ME,77463,El Salvador,Attack movie career century along unit shoulder.,2024-01-03,2024-10-02,middle,Humphrey Inc,generation,Limited tickets available
Hahn-Macdonald,5665 James Isle,Port Christianborough,WY,31509,Israel,Light fill threat reality support dog amount current.,2024-01-03,2024-04-14,material,"Fletcher, Phillips and Richardson",sport,Tickets on sale
"Nicholson, Wilson and West",873 Mary Stream Apt. 610,North Adam,VT,2275,British Indian Ocean Territory (Chagos Archipelago),Concern officer artist so push understand.,2024-01-03,2024-09-09,data,Sharp LLC,consider,Sold out
"Davis, Price and Mccall",77046 Griffith Club,Cainhaven,KS,19882,Mongolia,Other nice data concern pull feeling.,2024-01-01,2024-04-12,free,Gross Group,test,Sold out
Ruiz and Sons,5642 Miranda Turnpike Suite 602,New Cassandrabury,WI,94354,Bangladesh,Trade though society onto.,2024-01-03,2024-01-31,true,Robertson-Young,station,Registration open
Carrillo PLC,0458 Johnson Highway Apt. 674,West Anne,MT,4662,Peru,Network station kind that.,2024-01-03,2024-04-24,meeting,Francis-Bradley,forget,Sold out
Payne PLC,6716 Moore Spring,North Dennisview,GU,20135,Niger,Mind know it government job industry.,2024-01-01,2024-02-09,door,Mccormick Ltd,although,Tickets on sale
Wilson-Tran,4620 Matthews Villages,Kellymouth,GU,49686,Uganda,Last else pass authority.,2024-01-03,2024-09-07,instead,Miller-Lee,treat,Registration open
"Mcdonald, Schneider and Mcgrath",39705 Kari Trail Suite 684,Gabrielhaven,UT,5595,Equatorial Guinea,Mean enjoy reason exactly nothing.,2024-01-03,2024-06-11,candidate,Hart Group,near,Registration open
Browning-Jensen,44345 Davis Route Suite 220,Charlesport,VA,62142,Kiribati,Person individual have decade word.,2024-01-01,2024-01-05,specific,Hanson LLC,question,Limited tickets available
Nguyen Ltd,3558 Stephanie Flat Suite 562,South Haley,PR,77554,United States Virgin Islands,Often pattern benefit.,2024-01-02,2024-08-20,business,Townsend-Johnston,yourself,Sold out
"Bautista, Green and Brady",8496 Tran Squares,Howardburgh,DC,21396,Montserrat,Very however ball final mention.,2024-01-03,2024-08-19,serve,Marshall-Wong,but,Registration open
Edwards-Young,9173 Julia Point,West Phillipstad,NJ,46270,Ecuador,Money door father office old father.,2024-01-02,2024-07-13,prevent,Young-Henry,woman,Limited tickets available
Johnson-Walters,4059 Nunez Hill,New James,TX,74013,Argentina,Answer capital animal friend.,2024-01-01,2024-03-23,while,Wall-Sosa,now,Limited tickets available
Diaz Ltd,09711 Mary Center,Baileyville,OH,49115,Mayotte,Tree often rule significant consider.,2024-01-03,2024-11-19,send,Velasquez LLC,open,Registration open
Callahan-Wagner,883 Joseph Union Apt. 278,Lake Jeffrey,MH,90587,Honduras,Property top despite could light down statement.,2024-01-01,2024-01-30,nearly,Davis Group,trial,Limited tickets available
"Keith, Orr and Reed",262 Christopher Lane Suite 997,North Christopherchester,MA,90802,Cayman Islands,Goal whether evidence fly.,2024-01-03,2024-08-13,whether,Ray Inc,none,Sold out
Maldonado-Lam,449 Christina Orchard Apt. 369,South Christopher,AR,75009,United States of America,Important board industry popular again talk summer.,2024-01-03,2024-02-15,parent,"Clayton, Lopez and Boyd",those,Sold out
Smith-Wilson,89825 Anderson Crest,Port Karen,DC,83928,French Southern Territories,Set small machine she room.,2024-01-03,2024-03-15,security,"Weiss, Thomas and Mcintosh",bad,Sold out
Gibson Group,74492 Edward Centers,South Jerrystad,CO,28403,Bahrain,Return offer option source although table wife.,2024-01-02,2024-02-11,thousand,Greene-Nelson,leader,Registration open
Garcia Group,64485 Krystal Station,Chadside,IN,27491,Guyana,How treat president describe college outside.,2024-01-03,2024-03-26,program,"Dennis, Camacho and Jacobs",hotel,Sold out
Bradshaw-Wade,220 Levine Islands Suite 833,Weaverside,WI,47040,United States Virgin Islands,Fire worker suggest where its suddenly listen stage.,2024-01-03,2024-10-23,manage,"Rivera, Hernandez and Lewis",range,Tickets on sale
Salinas PLC,6862 Johnson Street Suite 323,Danielsburgh,KY,40406,Russian Federation,Others husband stay plant beautiful heart.,2024-01-03,2024-03-21,explain,"Carroll, Arias and Turner",trade,Registration open
Torres Group,805 Cody Courts Apt. 489,East Victorstad,PA,79090,Trinidad and Tobago,Series represent only option off.,2024-01-01,2024-09-26,report,"Frost, Harrington and Nelson",dog,Sold out
"Harris, House and Anderson",01399 Davenport Manors,Port Lisa,LA,30867,Georgia,Appear stuff kitchen score.,2024-01-02,2024-10-04,cause,Ramirez PLC,who,Limited tickets available
Green-Perry,44279 William Loop Suite 337,East Lisa,KS,68458,Montenegro,Nation resource difficult whether wall.,2024-01-01,2024-09-24,around,Moore PLC,same,Tickets on sale
Green LLC,252 Mark Junctions,Port Stacymouth,SC,31698,Kazakhstan,Father production vote newspaper whatever who degree.,2024-01-01,2024-11-20,by,Collins PLC,hear,Limited tickets available
"Gardner, Palmer and Meyer",428 Mora Ridges Suite 107,East Sheila,PR,49546,British Indian Ocean Territory (Chagos Archipelago),West color real new cause dark.,2024-01-03,2024-06-29,happen,"Moreno, Mueller and Gill",could,Tickets on sale
Soto-Mitchell,044 Lisa Springs,Howardport,PR,70280,Micronesia,People there work according wonder choice.,2024-01-02,2024-01-16,consumer,Andrade-Rogers,international,Tickets on sale
"Carlson, Harris and Daniels",766 Barr Road Apt. 673,Kimland,MT,93614,Fiji,Animal share law.,2024-01-03,2024-08-25,rise,Watkins-Watkins,carry,Registration open
Ortiz-Adams,858 Oliver Gardens Apt. 925,West Emily,CT,88025,Portugal,Along whom team writer.,2024-01-02,2024-02-23,simple,Sandoval-Gonzales,else,Limited tickets available
Robinson and Sons,168 Thompson Locks Suite 545,East Jacob,IL,63598,Korea,Something year physical.,2024-01-03,2024-12-09,several,Kelley Group,same,Tickets on sale
"Harper, Yoder and King",8614 Karen Fields Apt. 749,Port Johnland,MT,1493,Palau,Organization ready activity parent bad campaign operation.,2024-01-03,2024-03-10,have,Green-Johnson,cultural,Sold out
Benson Group,9253 Maria Forge,Nicoletown,VT,65628,Senegal,Medical material special or behavior various film.,2024-01-03,2024-03-29,interest,"Levine, Hill and Reed",find,Sold out
Meyers-Potter,46709 Judith Squares,Lake Matthewport,ID,45623,Ethiopia,Agency everybody inside deal prepare serve garden member.,2024-01-02,2024-04-04,talk,Hernandez-Ferguson,service,Registration open
"Bennett, Brewer and Mullins",376 Robin Passage Suite 965,South Jaclyn,ME,62138,Wallis and Futuna,Action first pass ago present.,2024-01-01,2024-10-05,experience,Lewis-Thornton,himself,Limited tickets available
Wiley Group,157 Mclaughlin Motorway,Lake Michael,DC,58021,Mexico,Sort people buy address establish need enjoy.,2024-01-01,2024-12-19,career,"Brown, Walls and Robinson",determine,Tickets on sale
Simmons-Bailey,23653 Victor Locks,East Tammy,MO,80528,Swaziland,Item outside common.,2024-01-02,2024-08-15,employee,Brown LLC,smile,Tickets on sale
Harrison Inc,324 Fox Cape Suite 178,North Tony,CA,48081,Kenya,Evening the huge figure simple its writer.,2024-01-01,2024-01-28,a,Wilson-Brown,receive,Tickets on sale
"Holt, Marshall and Ray",020 Scott Trail,Lake Mark,GA,23900,Jamaica,Up who form offer rock lay.,2024-01-02,2024-02-22,which,Hopkins and Sons,manage,Sold out
"Warner, Peterson and Solomon",9799 Robert Shore Apt. 679,North Jacobmouth,PA,92943,Sweden,However process reflect reach.,2024-01-01,2024-05-06,finally,Morris Ltd,strategy,Limited tickets available
Moreno-Walter,705 Patricia Flats Suite 871,Murrayside,MO,39081,Zimbabwe,Through role exactly thing somebody.,2024-01-02,2024-09-23,hard,Monroe LLC,indeed,Tickets on sale
Harris-Skinner,54285 Erica Village Suite 948,Port Jordan,MS,70065,Cayman Islands,Yard professor yes well.,2024-01-02,2024-02-04,democratic,Morris LLC,data,Limited tickets available
Campbell Inc,44673 Patrick Skyway Apt. 898,Lake Sarah,IA,70368,Kenya,Movie also leg create top.,2024-01-02,2024-11-09,keep,"Cook, Hernandez and Young",local,Sold out
Roman-Smith,35394 Carlos Mission Apt. 277,Crystalfurt,OR,76896,Iraq,Similar brother range issue three teacher.,2024-01-03,2024-09-20,war,Taylor Inc,science,Registration open
Michael-Barr,9248 Whitney Rapids,East Andrewfurt,NV,41750,Austria,However nature open.,2024-01-01,2024-08-14,fine,"Ellison, Smith and Ramirez",say,Limited tickets available
"Pierce, Townsend and Brooks",57503 Carla Path Apt. 294,Rebeccaside,VI,16185,Saint Helena,For loss participant foot explain during.,2024-01-03,2024-10-31,line,Shaw PLC,treat,Tickets on sale
"Russell, Hughes and Richardson",9276 Mary Lodge Apt. 319,Port Sarahtown,MD,36198,Monaco,Always win garden.,2024-01-02,2024-05-08,sport,Lang Group,member,Sold out
Simpson-Smith,9870 Robert Alley,Karenchester,WV,43888,Qatar,Million benefit three fear source break.,2024-01-01,2024-07-08,property,Price-Mathis,sign,Registration open
"Hill, Diaz and Henry",8926 Austin Square,Lake Lauren,AS,48272,Russian Federation,Site involve point reduce.,2024-01-02,2024-07-14,provide,Chapman-Moore,fast,Registration open
Hall-Clayton,94629 Megan Shore,South Andreabury,DE,59329,Seychelles,Shake discussion life cultural lose.,2024-01-02,2024-01-06,near,"Soto, Ruiz and Ellis",according,Sold out
"Wilson, Rivera and Strong",01704 David Lights Apt. 997,Deleonshire,FM,19116,Canada,Amount develop ahead coach right offer top.,2024-01-01,2024-10-24,mean,"Smith, Jones and Cole",future,Registration open
Berger and Sons,5087 Robert Rapid Suite 548,Laneport,AK,65556,Estonia,Culture thank compare full heart.,2024-01-03,2024-06-18,rest,Jackson-Patel,alone,Tickets on sale
Boyd-Watkins,82968 Felicia Rue Suite 939,Garzachester,ID,97065,British Virgin Islands,Need improve international it worry.,2024-01-01,2024-10-27,station,Garcia-Hernandez,side,Sold out
Cooper-Ortega,04795 Delgado Shores Suite 519,Floydmouth,AS,18625,Rwanda,Today seat develop father.,2024-01-02,2024-06-21,challenge,"Lowe, Johnson and White",choose,Registration open
"Beasley, Clark and Koch",271 Tyler Light,Allenborough,NJ,38442,Trinidad and Tobago,Difficult expect production individual above trade.,2024-01-01,2024-12-06,seek,Fowler LLC,part,Limited tickets available
Jackson Ltd,60839 Andrew Glen,Johnborough,TX,81200,Israel,North character buy spend situation year mouth.,2024-01-02,2024-03-09,surface,Cross-Griffin,seem,Limited tickets available
Sanchez Inc,954 Maria Plaza,South Scottville,FL,38841,Greenland,Successful company mission car.,2024-01-01,2024-07-05,not,"Booth, Taylor and Lawrence",interesting,Sold out
Burns Group,31524 Miller Fields,Sarahhaven,AZ,85259,Grenada,Service man successful produce full phone easy.,2024-01-02,2024-08-11,recognize,Diaz-Bailey,realize,Sold out
Alvarez Group,93808 Richard Harbors,Michaelstad,HI,82665,Mauritius,Institution left thousand mother study data improve fall.,2024-01-02,2024-08-12,enjoy,"Gilmore, Herrera and Jackson",such,Limited tickets available
Knapp Group,45165 Jones Extension,West Jessicamouth,KS,8807,Bolivia,Challenge fire parent course debate heavy study.,2024-01-03,2024-10-05,sea,Johnson-Hernandez,analysis,Registration open
Allison Inc,9095 Bryan Islands Suite 253,Lauraland,FM,77651,Morocco,Whom economy seat kid could five term.,2024-01-02,2024-01-15,form,Munoz-Chambers,city,Sold out
"Hall, Coleman and Harper",7519 Austin Stravenue,Lake Jason,MI,17259,Bulgaria,Summer hit off well and.,2024-01-03,2024-05-24,here,Orr-Jacobson,stand,Limited tickets available
Ball-Austin,7247 Michael Via Apt. 287,Lake Chrisville,MO,17563,Saint Barthelemy,Appear successful everyone stand that listen attorney your.,2024-01-03,2024-11-21,drug,Turner-Williams,hospital,Registration open
Reid Ltd,64960 Smith Locks Apt. 972,New Benjamin,AZ,51967,Grenada,Use he ten give job morning.,2024-01-03,2024-03-01,win,Adams Inc,traditional,Tickets on sale
Smith PLC,65496 Fisher Branch,Suarezbury,OK,78310,Netherlands Antilles,One more candidate major difficult process.,2024-01-01,2024-03-21,food,Adams LLC,enough,Registration open
Quinn PLC,740 Christopher Union Suite 624,East Heather,GU,7294,British Virgin Islands,Method range project somebody scientist hundred staff.,2024-01-03,2024-08-28,defense,"Dodson, Sanders and Coleman",marriage,Sold out
Wilkerson PLC,528 Davis Heights,Castanedaport,DC,36882,British Indian Ocean Territory (Chagos Archipelago),Feeling class discover.,2024-01-03,2024-10-31,maintain,Moran Ltd,fall,Sold out
Brown and Sons,2315 Caroline Plain Apt. 091,Lake Marytown,MS,26207,Grenada,With medical race choose.,2024-01-02,2024-08-24,bit,Peterson-Moss,hundred,Registration open
Hodge and Sons,036 Thomas Flat,West Kayla,WV,88000,France,Take tree former cut floor.,2024-01-01,2024-05-01,close,Riley and Sons,into,Sold out
"Olson, Bradley and Taylor",5864 Bailey Crossroad Suite 007,Lake Kristen,ND,82443,Lithuania,Might catch anything move cause prevent mother.,2024-01-01,2024-06-22,third,Miller-Sutton,most,Tickets on sale
Johnson LLC,6320 Stark Terrace Suite 268,North Anne,MN,45137,Saint Vincent and the Grenadines,Would major possible power rate risk style many.,2024-01-03,2024-01-26,here,Lopez Ltd,none,Tickets on sale
Padilla and Sons,2685 Matthew Park,West Kimberlyfort,MD,95496,Vietnam,Indicate brother soon Congress my.,2024-01-03,2024-12-08,economic,Robbins and Sons,develop,Registration open
Wong and Sons,5423 Tamara Field Suite 207,Port Jenniferstad,CA,97864,San Marino,Should country brother meeting.,2024-01-01,2024-03-09,animal,Smith LLC,agree,Tickets on sale
"Montgomery, Johnston and Thompson",3416 Hood Viaduct,Turnerberg,MH,62614,Equatorial Guinea,Main so know his claim.,2024-01-03,2024-02-29,box,"Carter, Vincent and Ali",five,Registration open
Thomas-Gutierrez,4752 Mary Pass Suite 943,Melissastad,IA,87275,Belarus,Smile but boy seven.,2024-01-01,2024-09-12,line,Fernandez and Sons,audience,Registration open
